{
  "norad_id": 46506,
  "name": "NETSAT-1",
  "history": [
    {
      "epoch": "2026-03-28T21:12:26.320608Z",
      "apogee_km": 470.2325444195012,
      "perigee_km": 465.68810501535427,
      "latitude_deg": 2.05508552534808e-05,
      "longitude_deg": -61.01136127295946,
      "height_km": 469.89165329630436,
      "semi_major_axis_km": 6846.097324717428,
      "eccentricity": 0.0003319,
      "inclination_deg": 97.8751,
      "raan_deg": 83.396,
      "arg_perigee_deg": 300.8626,
      "mean_anomaly_deg": 59.2288,
      "mean_motion_rev_day": 15.32632952
    },
    {
      "epoch": "2026-03-28T22:46:27.278112Z",
      "apogee_km": 470.2241872202694,
      "perigee_km": 465.68385965352627,
      "latitude_deg": 9.122361408698516e-06,
      "longitude_deg": -84.51030096327108,
      "height_km": 469.8983475818,
      "semi_major_axis_km": 6846.091023436898,
      "eccentricity": 0.0003316,
      "inclination_deg": 97.8751,
      "raan_deg": 83.4654,
      "arg_perigee_deg": 300.5126,
      "mean_anomaly_deg": 59.5787,
      "mean_motion_rev_day": 15.32635068
    },
    {
      "epoch": "2026-03-30T12:22:47.198784Z",
      "apogee_km": 469.9770893938803,
      "perigee_km": 465.5506668041189,
      "latitude_deg": 8.42936813196062e-05,
      "longitude_deg": 71.52918259784255,
      "height_km": 470.0583651777302,
      "semi_major_axis_km": 6845.900878098999,
      "eccentricity": 0.00032329,
      "inclination_deg": 97.8748,
      "raan_deg": 85.1323,
      "arg_perigee_deg": 291.2679,
      "mean_anomaly_deg": 68.8217,
      "mean_motion_rev_day": 15.32698922
    },
    {
      "epoch": "2026-03-30T21:46:51.298752Z",
      "apogee_km": 469.91674153412623,
      "perigee_km": 465.51335258041763,
      "latitude_deg": 1.7679293898371725e-05,
      "longitude_deg": -69.45718204144264,
      "height_km": 470.09793020374997,
      "semi_major_axis_km": 6845.852047057271,
      "eccentricity": 0.00032161,
      "inclination_deg": 97.8748,
      "raan_deg": 85.5491,
      "arg_perigee_deg": 288.9361,
      "mean_anomaly_deg": 71.1531,
      "mean_motion_rev_day": 15.32715321
    },
    {
      "epoch": "2026-03-31T10:18:56.335680Z",
      "apogee_km": 469.8513558657487,
      "perigee_km": 465.4818163528071,
      "latitude_deg": 3.814789958321219e-06,
      "longitude_deg": 102.56275020495235,
      "height_km": 470.16072950956186,
      "semi_major_axis_km": 6845.803586109278,
      "eccentricity": 0.00031914,
      "inclination_deg": 97.8746,
      "raan_deg": 86.1048,
      "arg_perigee_deg": 286.0299,
      "mean_anomaly_deg": 74.059,
      "mean_motion_rev_day": 15.32731596
    },
    {
      "epoch": "2026-04-01T17:39:06.556320Z",
      "apogee_km": 469.6987739349852,
      "perigee_km": 465.37094018695007,
      "latitude_deg": -2.6802002885744048e-05,
      "longitude_deg": -7.3771607478732015,
      "height_km": 470.35702641806046,
      "semi_major_axis_km": 6845.671857060967,
      "eccentricity": 0.0003161,
      "inclination_deg": 97.8747,
      "raan_deg": 87.4944,
      "arg_perigee_deg": 277.3139,
      "mean_anomaly_deg": 82.7742,
      "mean_motion_rev_day": 15.32775837
    },
    {
      "epoch": "2026-04-02T17:09:11.839104Z",
      "apogee_km": 469.56371769516136,
      "perigee_km": 465.26060549218346,
      "latitude_deg": 4.950445370067068e-05,
      "longitude_deg": 0.1778470093916688,
      "height_km": 470.4756756698403,
      "semi_major_axis_km": 6845.549161593672,
      "eccentricity": 0.0003143,
      "inclination_deg": 97.8751,
      "raan_deg": 88.5366,
      "arg_perigee_deg": 270.9116,
      "mean_anomaly_deg": 89.1765,
      "mean_motion_rev_day": 15.32817046
    },
    {
      "epoch": "2026-04-02T21:51:12.555936Z",
      "apogee_km": 469.5099736522934,
      "perigee_km": 465.21989758923974,
      "latitude_deg": -5.604474885117269e-05,
      "longitude_deg": -70.30975545406635,
      "height_km": 470.461447601157,
      "semi_major_axis_km": 6845.501935620766,
      "eccentricity": 0.00031335,
      "inclination_deg": 97.8751,
      "raan_deg": 88.745,
      "arg_perigee_deg": 270.0337,
      "mean_anomaly_deg": 90.0544,
      "mean_motion_rev_day": 15.32832908
    },
    {
      "epoch": "2026-04-03T13:31:14.285856Z",
      "apogee_km": 469.4282019522316,
      "perigee_km": 465.1279122133719,
      "latitude_deg": 2.347742420423209e-05,
      "longitude_deg": 54.73449875519765,
      "height_km": 470.5369178592832,
      "semi_major_axis_km": 6845.4150570828015,
      "eccentricity": 0.0003141,
      "inclination_deg": 97.8751,
      "raan_deg": 89.4399,
      "arg_perigee_deg": 265.7052,
      "mean_anomaly_deg": 94.383,
      "mean_motion_rev_day": 15.32862089
    }
  ]
}